{
  "countries": [
    {
      "code": "PE",
      "name": "PerÃº",
      "flag": "ðŸ‡µðŸ‡ª",
      "dialCode": "+51"
    },
    {
      "code": "US",
      "name": "Estados Unidos",
      "flag": "ðŸ‡ºðŸ‡¸",
      "dialCode": "+1"
    },
    {
      "code": "MX",
      "name": "MÃ©xico",
      "flag": "ðŸ‡²ðŸ‡½",
      "dialCode": "+52"
    },
    {
      "code": "CO",
      "name": "Colombia",
      "flag": "ðŸ‡¨ðŸ‡´",
      "dialCode": "+57"
    },
    {
      "code": "CL",
      "name": "Chile",
      "flag": "ðŸ‡¨ðŸ‡±",
      "dialCode": "+56"
    },
    {
      "code": "AR",
      "name": "Argentina",
      "flag": "ðŸ‡¦ðŸ‡·",
      "dialCode": "+54"
    },
    {
      "code": "BR",
      "name": "Brasil",
      "flag": "ðŸ‡§ðŸ‡·",
      "dialCode": "+55"
    },
    {
      "code": "EC",
      "name": "Ecuador",
      "flag": "ðŸ‡ªðŸ‡¨",
      "dialCode": "+593"
    },
    {
      "code": "BO",
      "name": "Bolivia",
      "flag": "ðŸ‡§ðŸ‡´",
      "dialCode": "+591"
    },
    {
      "code": "PY",
      "name": "Paraguay",
      "flag": "ðŸ‡µðŸ‡¾",
      "dialCode": "+595"
    },
    {
      "code": "UY",
      "name": "Uruguay",
      "flag": "ðŸ‡ºðŸ‡¾",
      "dialCode": "+598"
    },
    {
      "code": "VE",
      "name": "Venezuela",
      "flag": "ðŸ‡»ðŸ‡ª",
      "dialCode": "+58"
    },
    {
      "code": "ES",
      "name": "EspaÃ±a",
      "flag": "ðŸ‡ªðŸ‡¸",
      "dialCode": "+34"
    },
    {
      "code": "CA",
      "name": "CanadÃ¡",
      "flag": "ðŸ‡¨ðŸ‡¦",
      "dialCode": "+1"
    },
    {
      "code": "GB",
      "name": "Reino Unido",
      "flag": "ðŸ‡¬ðŸ‡§",
      "dialCode": "+44"
    }
  ]
}

